{
	"type": "FeatureCollection",
	"features": [
		{
			"type": "Feature",
			"geometry": { "type": "Point", "coordinates": [-122.032939, 37.977135] },
			"bbox": [-122.105821, 37.916105, -121.914616, 38.085975],
			"properties": { "label": "Concord - California, United States" }
		},
		{
			"type": "Feature",
			"geometry": { "type": "Point", "coordinates": [-121.890891, 38.019062] },
			"bbox": [-122.011257, 37.949944, -121.83187, 38.056997],
			"properties": { "label": "Pittsburg - California, United States" }
		},
		{
			"type": "Feature",
			"geometry": { "type": "Point", "coordinates": [-121.806033, 38.004892] },
			"bbox": [-121.891323, 37.920406, -121.732384, 38.067202],
			"properties": { "label": "Antioch - California, United States" }
		},
		{
			"type": "Feature",
			"geometry": { "type": "Point", "coordinates": [-122.13485, 38.018984] },
			"bbox": [-122.236033, 37.935945, -122.056918, 38.055149],
			"properties": { "label": "Martinez - California, United States" }
		},
		{
			"type": "Feature",
			"geometry": { "type": "Point", "coordinates": [-121.982981, 38.022937] },
			"properties": {
				"label": "4725 Evora Road - 4725 Evora Road, Concord, California 94520, United States"
			}
		}
	]
}
